OBJECT_NAME,OBJECT_ID,EPOCH,MEAN_MOTION,ECCENTRICITY,INCLINATION,RA_OF_ASC_NODE,ARG_OF_PERICENTER,MEAN_ANOMALY,EPHEMERIS_TYPE,CLASSIFICATION_TYPE,NORAD_CAT_ID,ELEMENT_SET_NO,REV_AT_EPOCH,BSTAR,MEAN_MOTION_DOT,MEAN_MOTION_DDOT
DUBAISAT-1,2009-041B,2026-06-05T21:31:17.553216,14.75106477,.0011726,98.0039,290.2794,105.7067,254.5437,0,U,35682,999,90343,.15747E-3,.1012E-4,0
OCEANSAT-2,2009-051A,2026-06-06T21:44:03.522912,13.99663548,.00145856,98.2323,145.7827,267.5908,92.3589,0,U,35931,999,87789,.12163286E-3,.14E-5,0
WORLDVIEW-2 (WV-2),2009-055A,2026-06-06T22:25:52.727520,14.37896415,.0003214,98.4737,231.5253,245.9238,114.1613,0,U,35946,999,87417,.56757939E-4,.128E-5,0
SMOS,2009-059A,2026-06-06T11:41:32.734752,14.39766844,.00013403,98.4426,344.9790,91.3547,268.7794,0,U,36036,999,87191,.99006893E-4,.267E-5,0
YAOGAN-7,2009-069A,2026-06-06T15:54:46.042560,14.77999154,.00259795,98.0084,43.5945,74.1214,286.2857,0,U,36110,999,88807,.81100931E-4,.535E-5,0
TANDEM-X,2010-030A,2026-06-06T10:55:28.703712,15.19152152,.0001794,97.4458,165.3146,98.1824,261.9614,0,U,36605,999,88501,.44865E-4,.875E-5,0
CARTOSAT-2B,2010-035A,2026-06-06T22:02:37.020192,14.78649633,.00103647,97.9953,208.5333,219.1509,140.8953,0,U,36795,999,85833,.14569402E-3,.1016E-4,0
YAOGAN-10,2010-038A,2026-06-06T22:04:55.256736,14.85318783,.00017051,97.8979,181.4065,88.3358,29.8072,0,U,36834,999,85568,.255182E-3,.2139E-4,0
COSMO-SKYMED 4,2010-060A,2026-06-06T21:53:24.583776,14.82159958,.00014181,97.8887,341.6606,82.1640,277.9734,0,U,37216,999,84304,.18294963E-4,.93E-6,0
RESOURCESAT-2,2011-015A,2026-06-06T21:12:16.383744,14.21604277,.00101465,98.7645,225.3961,288.7944,71.2133,0,U,37387,999,78471,.59492129E-4,.86E-6,0
HAIYANG-2A,2011-043A,2026-06-06T22:04:53.745600,13.74549557,.00062307,99.3395,160.8222,111.9855,248.1957,0,U,37781,999,74524,-.41178368E-4,-.83E-6,0
RASAT,2011-044D,2026-06-06T23:01:34.804704,14.68155403,.0019438,98.0570,249.5123,222.4899,225.2212,0,U,37791,999,79168,.39606303E-4,.179E-5,0
SRMSAT,2011-058D,2026-06-06T06:31:30.735264,14.11573396,.00119474,19.9704,125.5359,84.3565,18.6414,0,U,37841,999,75627,.65061068E-4,.385E-5,0
PLEIADES 1A,2011-076F,2026-06-06T23:27:03.816000,14.58564515,.00014854,98.1973,233.2165,97.5296,347.5299,0,U,38012,999,77050,.79596832E-4,.324E-5,0
ZIYUAN 1-02C (ZY 1-02C),2011-079A,2026-06-06T23:46:32.147040,14.38206423,.00061843,98.4068,225.5119,350.4563,86.3213,0,U,38038,999,75774,.14026213E-3,.383E-5,0
ARIRANG-3 (KOMPSAT-3),2012-025B,2026-06-06T21:43:07.741344,14.62197142,.00062079,98.1172,115.5428,135.9256,224.2441,0,U,38338,999,74984,.10361765E-3,.475E-5,0
EXACTVIEW-1 (ADS-1B),2012-039C,2026-06-06T13:37:55.911936,14.24981483,.0010585,98.9765,274.7191,196.7561,163.3269,0,U,38709,999,72119,.79436E-4,.139E-5,0
SPOT 6,2012-047A,2026-06-06T21:46:58.401696,14.58556780,.00014501,98.2117,225.3365,94.0049,266.1316,0,U,38755,999,73155,.73629815E-4,.296E-5,0
PLEIADES 1B,2012-068A,2026-06-06T22:14:11.181120,14.58554271,.0001582,98.1942,233.1193,95.5110,264.6269,0,U,39019,999,71935,.79356458E-4,.323E-5,0
GOKTURK 2,2012-073A,2026-06-06T21:48:41.032800,14.75532403,.00019554,97.6823,355.8552,62.3237,297.8171,0,U,39030,999,72299,.83701127E-4,.523E-5,0
LANDSAT 8,2013-008A,2026-06-06T22:19:32.709216,14.57111856,.00014591,98.2302,228.1869,96.6119,263.5245,0,U,39084,999,69640,.83480754E-4,.331E-5,0
SARAL,2013-009A,2026-06-06T21:58:15.293856,14.32853426,.00012908,98.5558,344.6130,356.6458,3.4718,0,U,39086,999,69413,.47750387E-4,.87E-6,0
GAOFEN-1,2013-018A,2026-06-06T23:10:33.575232,14.76525016,.00159718,97.9092,230.2410,302.6401,57.3267,0,U,39150,999,70673,.23744032E-4,.115E-5,0
VNREDSAT 1,2013-021B,2026-06-06T23:30:31.785984,14.64845786,.00016865,97.9081,211.7873,90.7202,269.4194,0,U,39160,999,69879,.10205369E-3,.5E-5,0
ARIRANG-5 (KOMPSAT-5),2013-042A,2026-06-06T22:10:06.897216,15.04553415,.00040312,97.6211,344.7683,147.6614,212.4860,0,U,39227,999,70231,.17509307E-3,.2394E-4,0
SKYSAT-A,2013-066C,2026-06-06T14:37:07.469472,15.12917882,.0021116,97.3819,207.3434,355.5146,4.5893,0,U,39418,999,68688,.21393254E-3,.3723E-4,0
DUBAISAT-2,2013-066D,2026-06-06T22:23:23.932032,15.10104080,.00129256,97.4565,148.3465,71.3163,288.9468,0,U,39419,999,68484,.33153644E-3,.535E-4,0
GPM-CORE,2014-009C,2026-06-06T20:26:14.277696,15.45424376,.00120583,64.9731,342.7563,269.5477,90.4282,0,U,39574,999,69621,.1703688E-3,.7964E-4,0
SENTINEL-1A,2014-016A,2026-06-06T22:40:17.251968,14.59199589,.00014349,98.1781,165.6270,80.8220,279.3142,0,U,39634,999,64852,.27039492E-4,.82E-6,0
KAZEOSAT 1,2014-024A,2026-06-06T23:03:42.655104,14.42075934,.00014999,98.3202,230.6622,75.9986,284.1371,0,U,39731,999,63708,.64812457E-4,.17E-5,0
