DUBAISAT-1              
1 35682U 09041B   26156.89673094  .00001012  00000+0  15747-3 0  9994
2 35682  98.0039 290.2794 0011726 105.7067 254.5437 14.75106477903432
OCEANSAT-2              
1 35931U 09051A   26157.90559633  .00000140  00000+0  12163-3 0  9997
2 35931  98.2323 145.7827 0014585 267.5908  92.3589 13.99663548877893
WORLDVIEW-2 (WV-2)      
1 35946U 09055A   26157.93463805  .00000128  00000+0  56758-4 0  9990
2 35946  98.4737 231.5253 0003214 245.9238 114.1613 14.37896415874173
SMOS                    
1 36036U 09059A   26157.48718443  .00000267  00000+0  99007-4 0  9994
2 36036  98.4426 344.9790 0001340  91.3547 268.7794 14.39766844871917
YAOGAN-7                
1 36110U 09069A   26157.66303290  .00000535  00000+0  81101-4 0  9992
2 36110  98.0084  43.5945 0025979  74.1214 286.2857 14.77999154888078
TANDEM-X                
1 36605U 10030A   26157.45519333  .00000875  00000+0  44865-4 0  9998
2 36605  97.4458 165.3146 0001794  98.1824 261.9614 15.19152152885011
CARTOSAT-2B             
1 36795U 10035A   26157.91848403  .00001016  00000+0  14569-3 0  9992
2 36795  97.9953 208.5333 0010364 219.1509 140.8953 14.78649633858337
YAOGAN-10               
1 36834U 10038A   26157.92008399  .00002139  00000+0  25518-3 0  9995
2 36834  97.8979 181.4065 0001705  88.3358  29.8072 14.85318783855686
COSMO-SKYMED 4          
1 37216U 10060A   26157.91209009  .00000093  00000+0  18295-4 0  9997
2 37216  97.8887 341.6606 0001418  82.1640 277.9734 14.82159958843049
RESOURCESAT-2           
1 37387U 11015A   26157.88352296  .00000086  00000+0  59492-4 0  9996
2 37387  98.7645 225.3961 0010146 288.7944  71.2133 14.21604277784719
HAIYANG-2A              
1 37781U 11043A   26157.92006650 -.00000083  00000+0 -41178-4 0  9991
2 37781  99.3395 160.8222 0006230 111.9855 248.1957 13.74549557745246
RASAT                   
1 37791U 11044D   26157.95943061  .00000179  00000+0  39606-4 0  9999
2 37791  98.0570 249.5123 0019438 222.4899 225.2212 14.68155403791689
SRMSAT                  
1 37841U 11058D   26157.27188351  .00000385  00000+0  65061-4 0  9991
2 37841  19.9704 125.5359 0011947  84.3565  18.6414 14.11573396756279
PLEIADES 1A             
1 38012U 11076F   26157.97712750  .00000324  00000+0  79597-4 0  9997
2 38012  98.1973 233.2165 0001485  97.5296 347.5299 14.58564515770503
ZIYUAN 1-02C (ZY 1-02C) 
1 38038U 11079A   26157.99064985  .00000383  00000+0  14026-3 0  9990
2 38038  98.4068 225.5119 0006184 350.4563  86.3213 14.38206423757745
ARIRANG-3 (KOMPSAT-3)   
1 38338U 12025B   26157.90495071  .00000475  00000+0  10362-3 0  9991
2 38338  98.1172 115.5428 0006207 135.9256 224.2441 14.62197142749845
EXACTVIEW-1 (ADS-1B)    
1 38709U 12039C   26157.56800824  .00000139  00000+0  79436-4 0  9991
2 38709  98.9765 274.7191 0010585 196.7561 163.3269 14.24981483721192
SPOT 6                  
1 38755U 12047A   26157.90762039  .00000296  00000+0  73630-4 0  9998
2 38755  98.2117 225.3365 0001450  94.0049 266.1316 14.58556780731555
PLEIADES 1B             
1 39019U 12068A   26157.92651830  .00000323  00000+0  79356-4 0  9995
2 39019  98.1942 233.1193 0001582  95.5110 264.6269 14.58554271719358
GOKTURK 2               
1 39030U 12073A   26157.90880825  .00000523  00000+0  83701-4 0  9991
2 39030  97.6823 355.8552 0001955  62.3237 297.8171 14.75532403722996
LANDSAT 8               
1 39084U 13008A   26157.93023969  .00000331  00000+0  83481-4 0  9992
2 39084  98.2302 228.1869 0001459  96.6119 263.5245 14.57111856696408
SARAL                   
1 39086U 13009A   26157.91545479  .00000087  00000+0  47750-4 0  9995
2 39086  98.5558 344.6130 0001290 356.6458   3.4718 14.32853426694132
GAOFEN-1                
1 39150U 13018A   26157.96566638  .00000115  00000+0  23744-4 0  9991
2 39150  97.9092 230.2410 0015971 302.6401  57.3267 14.76525016706737
VNREDSAT 1              
1 39160U 13021B   26157.97953456  .00000500  00000+0  10205-3 0  9990
2 39160  97.9081 211.7873 0001686  90.7202 269.4194 14.64845786698792
ARIRANG-5 (KOMPSAT-5)   
1 39227U 13042A   26157.92369094  .00002394  00000+0  17509-3 0  9998
2 39227  97.6211 344.7683 0004031 147.6614 212.4860 15.04553415702312
SKYSAT-A                
1 39418U 13066C   26157.60911423  .00003723  00000+0  21393-3 0  9993
2 39418  97.3819 207.3434 0021116 355.5146   4.5893 15.12917882686886
DUBAISAT-2              
1 39419U 13066D   26157.93291588  .00005350  00000+0  33154-3 0  9999
2 39419  97.4565 148.3465 0012925  71.3163 288.9468 15.10104080684840
GPM-CORE                
1 39574U 14009C   26157.85155414  .00007964  00000+0  17037-3 0  9992
2 39574  64.9731 342.7563 0012058 269.5477  90.4282 15.45424376696216
SENTINEL-1A             
1 39634U 14016A   26157.94464412  .00000082  00000+0  27039-4 0  9996
2 39634  98.1781 165.6270 0001434  80.8220 279.3142 14.59199589648523
KAZEOSAT 1              
1 39731U 14024A   26157.96091036  .00000170  00000+0  64812-4 0  9991
2 39731  98.3202 230.6622 0001499  75.9986 284.1371 14.42075934637086
